{
"type": "FeatureCollection",
"name": "coal-plants",
"crs": { "type": "name", "properties": { "name": "urn:ogc:def:crs:OGC:1.3:CRS84" } },
"features": [
{ "type": "Feature", "properties": { "name": "Olympus Power LLC", "affected": "Walleye Power, LLC Bay Shore Unit 1", "address": "4701 Bay Shore Rd, Oregon, OH 43616", "latitude": 41.6918511, "longitude": -83.4377837 }, "geometry": { "type": "Point", "coordinates": [ -83.4377837, 41.6918511 ] } },
{ "type": "Feature", "properties": { "name": "Talen Montana, LIC and NorthWestern Energy", "affected": "Colstrip Steam Electric Station Units 3 and 4", "address": "580 Willow Ave, Colstrip, MT 59323", "latitude": 45.8845177, "longitude": -106.6156336 }, "geometry": { "type": "Point", "coordinates": [ -106.6156336, 45.8845177 ] } },
{ "type": "Feature", "properties": { "name": "East Kentucky Power Cooperative", "affected": "Spurlock Station", "address": "1301 W 2nd St, Maysville, KY 41056", "latitude": 38.698985, "longitude": -83.8167221 }, "geometry": { "type": "Point", "coordinates": [ -83.8167221, 38.698985 ] } },
{ "type": "Feature", "properties": { "name": "East Kentucky Power Cooperative", "affected": "Cooper Station", "address": "670 Cooper Power Plant Rd, Somerset, KY 42501", "latitude": 36.9984102, "longitude": -84.5920449 }, "geometry": { "type": "Point", "coordinates": [ -84.5920449, 36.9984102 ] } },
{ "type": "Feature", "properties": { "name": "Arizona Electric Power Cooperative", "affected": "Apache Generating Station", "address": "Cochise, AZ 85606", "latitude": 32.0615653, "longitude": -109.8928024 }, "geometry": { "type": "Point", "coordinates": [ -109.8928024, 32.0615653 ] } },
{ "type": "Feature", "properties": { "name": "Olympus Power LLC", "affected": "Northampton Generating Station Generating Unit 1", "address": "1 HORWITH DRIVE, NORTHAMPTON, PA, 18067", "latitude": 40.6926577, "longitude": -75.4804148 }, "geometry": { "type": "Point", "coordinates": [ -75.4804148, 40.6926577 ] } },
{ "type": "Feature", "properties": { "name": "Oklahoma Gas and Electric", "affected": "Sooner Unit 1 and Unit 2", "address": "10800 COUNTY ROAD 230, RED ROCK, OK, 74651", "latitude": 36.4637378, "longitude": -97.0678866 }, "geometry": { "type": "Point", "coordinates": [ -97.0678866, 36.4637378 ] } },
{ "type": "Feature", "properties": { "name": "Dynegy Midwest Generation", "affected": "Baldwin Power Plant Unit 1 and Unit 2", "address": "10901 BALDWIN RD, BALDWIN, IL, 62217", "latitude": 38.2103914, "longitude": -89.8472968 }, "geometry": { "type": "Point", "coordinates": [ -89.8472968, 38.2103914 ] } },
{ "type": "Feature", "properties": { "name": "Southern Company", "affected": "Scherer Steam Generator Unit 1, Unit 2, and Unit 3", "address": "10986 HIGHWAY 87, JULIETTE, GA, 31046", "latitude": 33.0765247, "longitude": -83.784022 }, "geometry": { "type": "Point", "coordinates": [ -83.784022, 33.0765247 ] } },
{ "type": "Feature", "properties": { "name": "Entergy Arkansas LIC", "affected": "White Bluff Steam Electric Station Unit 1", "address": "1100 WHITE BLUFF ROAD, REDFIELD, AR, 72132", "latitude": 34.4199001, "longitude": -92.1598132 }, "geometry": { "type": "Point", "coordinates": [ -92.1598132, 34.4199001 ] } },
{ "type": "Feature", "properties": { "name": "Miami Fort Power Company", "affected": "Miami Fort Power Plant Unit 1 (B015) and Unit 2 (B016)", "address": "11021 Brower Road, NORTH BEND, OH, 45052", "latitude": 39.1142016, "longitude": -84.8061866 }, "geometry": { "type": "Point", "coordinates": [ -84.8061866, 39.1142016 ] } },
{ "type": "Feature", "properties": { "name": "Schuylkill Energy Resources", "affected": "St. Nicholas Cogeneration Project", "address": "120 Yatesville Road, SHENANDOAH, PA, 17976", "latitude": 40.8230237, "longitude": -76.172518 }, "geometry": { "type": "Point", "coordinates": [ -76.172518, 40.8230237 ] } },
{ "type": "Feature", "properties": { "name": "Mount Carmel Cogen Inc", "affected": "Mount Carmel Cogen Power Plant", "address": "1226 Park Avenue, MARION HEIGHTS, PA, 17832", "latitude": 40.8111512, "longitude": -76.453281 }, "geometry": { "type": "Point", "coordinates": [ -76.453281, 40.8111512 ] } },
{ "type": "Feature", "properties": { "name": "Basin Electric", "affected": "Dry Fork Station Unit 1", "address": "12460 N. Hwy 59, Gillette, WY, 82716", "latitude": 43.8871722, "longitude": -105.452682 }, "geometry": { "type": "Point", "coordinates": [ -105.452682, 43.8871722 ] } },
{ "type": "Feature", "properties": { "name": "NRG Energy", "affected": "Powerton Electric Generating Station", "address": "13082 EAST MANITO RD, PEKIN, IL, 61554", "latitude": 40.5393781, "longitude": -89.6806595 }, "geometry": { "type": "Point", "coordinates": [ -89.6806595, 40.5393781 ] } },
{ "type": "Feature", "properties": { "name": "Southern Company", "affected": "Plant Daniel Electric Generating Unit 1 and Unit 2", "address": "13201 HIGHWAY 63, ESCATAWPA, MS, 39552", "latitude": 30.5281241, "longitude": -88.5535672 }, "geometry": { "type": "Point", "coordinates": [ -88.5535672, 30.5281241 ] } },
{ "type": "Feature", "properties": { "name": "Colver Green Energy Generation LLC", "affected": "Colver Green Facility", "address": "141 INTERPOWER DRIVE, COLVER, PA, 15927", "latitude": 40.5511685, "longitude": -78.7978876 }, "geometry": { "type": "Point", "coordinates": [ -78.7978876, 40.5511685 ] } },
{ "type": "Feature", "properties": { "name": "Keystone-Conemaugh Projects, LLC", "affected": "Conemaugh Station Unit 1 and Unit 2", "address": "1442 POWER PLANT ROAD, NEW FLORENCE, PA, 15944", "latitude": 40.385695, "longitude": -79.063582 }, "geometry": { "type": "Point", "coordinates": [ -79.063582, 40.385695 ] } },
{ "type": "Feature", "properties": { "name": "Tennessee Valley Authority", "affected": "Gallatin Fossil Plant", "address": "1499 STEAM PLANT RD, GALLATIN, TN, 37066", "latitude": 36.3160849, "longitude": -86.3992991 }, "geometry": { "type": "Point", "coordinates": [ -86.3992991, 36.3160849 ] } },
{ "type": "Feature", "properties": { "name": "Southern Company", "affected": "Barry Steam Electric Generating Facility Unit 5", "address": "15300 Highway 43 North, BUCKS, AL, 36512", "latitude": 31.0043055, "longitude": -88.0148077 }, "geometry": { "type": "Point", "coordinates": [ -88.0148077, 31.0043055 ] } },
{ "type": "Feature", "properties": { "name": "Monongahela Power Company “MonPower”", "affected": "Fort Martin Power Station", "address": "1732 FORT MARTIN DRIVE, MAIDSVILLE, WV, 26541", "latitude": 39.708028, "longitude": -79.9515226 }, "geometry": { "type": "Point", "coordinates": [ -79.9515226, 39.708028 ] } },
{ "type": "Feature", "properties": { "name": "Golden Valley Electric Association", "affected": "Healy Power Plant Unit 1 and Unit 2", "address": "2.5 Mile HEALY SPUR ROAD, HEALY, AK, 99743", "latitude": 63.8723264, "longitude": -148.9036312 }, "geometry": { "type": "Point", "coordinates": [ -148.9036312, 63.8723264 ] } },
{ "type": "Feature", "properties": { "name": "Scrubgrass Reclamation Company LP", "affected": "Scrubgrass Generating Plant/Venango Number 2 CFB Boiler (031), Number 2 CEB Boiler (032)", "address": "2151 LISBON ROAD, KENNERDELL, PA, 16374", "latitude": 41.268925, "longitude": -79.8113259 }, "geometry": { "type": "Point", "coordinates": [ -79.8113259, 41.268925 ] } },
{ "type": "Feature", "properties": { "name": "Ameren Missouri", "affected": "Labadie Energy Center", "address": "226 LABADIE POWER PLANT ROAD, LABADIE, MO, 63055", "latitude": 38.5363815, "longitude": -90.8492996 }, "geometry": { "type": "Point", "coordinates": [ -90.8492996, 38.5363815 ] } },
{ "type": "Feature", "properties": { "name": "American Bituminous Power Partners", "affected": "Grant Town Power Plant Boiler #1A and Boiler #1B", "address": "228 ABPP Drive, GRANT TOWN, WV, 26574", "latitude": 39.5619337, "longitude": -80.1619227 }, "geometry": { "type": "Point", "coordinates": [ -80.1619227, 39.5619337 ] } },
{ "type": "Feature", "properties": { "name": "Choctaw Generation Limited Partnership, LLLP", "affected": "Red Hills Generating Facility", "address": "2391 Pensacola Road, Ackerman, MS, 39735", "latitude": 33.3758973, "longitude": -89.2176592 }, "geometry": { "type": "Point", "coordinates": [ -89.2176592, 33.3758973 ] } },
{ "type": "Feature", "properties": { "name": "Sunflower Electric Power Corporation", "affected": "Holcomb Station", "address": "2440 HOLCOMB LANE, HOLCOMB, KS, 67851", "latitude": 37.9282769, "longitude": -100.9723871 }, "geometry": { "type": "Point", "coordinates": [ -100.9723871, 37.9282769 ] } },
{ "type": "Feature", "properties": { "name": "NRG Energy", "affected": "Plum Point Generation Station", "address": "2732A CR 623, OSCEOLA, AR, 72370", "latitude": 35.7028603, "longitude": -89.9700561 }, "geometry": { "type": "Point", "coordinates": [ -89.9700561, 35.7028603 ] } },
{ "type": "Feature", "properties": { "name": "Cleco Power LIC", "affected": "Brame Energy Center Unit 2", "address": "275 RODEMACHER RD, LENA, LA, 71447", "latitude": 31.4048115, "longitude": -92.7219367 }, "geometry": { "type": "Point", "coordinates": [ -92.7219367, 31.4048115 ] } },
{ "type": "Feature", "properties": { "name": "Ebensburg Power Company (EPC)", "affected": "EPC Generating Station", "address": "2840 New Germany Road, Ebensburg, PA, 15931", "latitude": 40.454702, "longitude": -78.746046 }, "geometry": { "type": "Point", "coordinates": [ -78.746046, 40.454702 ] } },
{ "type": "Feature", "properties": { "name": "Rainbow Energy Center", "affected": "Coal Creek Station", "address": "2875 3rd St SW, Underwood, ND 58576, ", "latitude": 47.3766451, "longitude": -101.1586075 }, "geometry": { "type": "Point", "coordinates": [ -101.1586075, 47.3766451 ] } },
{ "type": "Feature", "properties": { "name": "Oklahoma Gas and Electric", "affected": "River Valley Common Stack CS 1", "address": "3 MILES E. OF JUNCTION 31, PANAMA, OK, 74951", "latitude": 34.963092, "longitude": -95.6285751 }, "geometry": { "type": "Point", "coordinates": [ -95.6285751, 34.963092 ] } },
{ "type": "Feature", "properties": { "name": "Keystone-Conemaugh Projects, LLC", "affected": "Keystone Station Unit 1 and Unit 2", "address": "313 KEYSTONE DRIVE, SHELOCTA, PA, 15774", "latitude": 40.6511627, "longitude": -79.3323085 }, "geometry": { "type": "Point", "coordinates": [ -79.3323085, 40.6511627 ] } },
{ "type": "Feature", "properties": { "name": "Southern Company", "affected": "Bowen Steam Generator Unit 1, Unit 2, Unit 3, and Unit 4", "address": "317 COVERED BRIDGE ROAD SW, CARTERSVILLE, GA, 30120", "latitude": 34.1175359, "longitude": -84.9236714 }, "geometry": { "type": "Point", "coordinates": [ -84.9236714, 34.1175359 ] } },
{ "type": "Feature", "properties": { "name": "Minnkota Power Cooperative, Inc", "affected": "Milton R. Young Station Unit 1 and Unit 2", "address": "3401 24TH ST SW, CENTER, ND, 58530", "latitude": 47.0664787, "longitude": -101.2128049 }, "geometry": { "type": "Point", "coordinates": [ -101.2128049, 47.0664787 ] } },
{ "type": "Feature", "properties": { "name": "Entergy Louisiana", "affected": "RS Nelson Plant Unit 6", "address": "3500 HOUSTON RIVER ROAD, WESTLAKE, LA, 70669", "latitude": 30.2726599, "longitude": -93.2989444 }, "geometry": { "type": "Point", "coordinates": [ -93.2989444, 30.2726599 ] } },
{ "type": "Feature", "properties": { "name": "NRG Energy", "affected": "Limestone Generating Station", "address": "3964 FM 39, JEWETT, TX, 75846", "latitude": 31.3079977, "longitude": -96.1369748 }, "geometry": { "type": "Point", "coordinates": [ -96.1369748, 31.3079977 ] } },
{ "type": "Feature", "properties": { "name": "Panther Creek Power", "affected": "Panther Creek Pyropower Unit (031) and Pyropower Unit 2 (032)", "address": "4 DENNISON ROAD, NESQUEHONING, PA, 18240", "latitude": 40.8561775, "longitude": -75.8772484 }, "geometry": { "type": "Point", "coordinates": [ -75.8772484, 40.8561775 ] } },
{ "type": "Feature", "properties": { "name": "Associated Electric Cooperative", "affected": "New Madrid Power Plant Unit 1 and Unit 2 Coal Fired Cyclone Boilers", "address": "41 ST JUDE INDUSTRIAL PARK, NEW MADRID, MO, 63869", "latitude": 36.5864488, "longitude": -89.5278547 }, "geometry": { "type": "Point", "coordinates": [ -89.5278547, 36.5864488 ] } },
{ "type": "Feature", "properties": { "name": "Southern Company", "affected": "Miller Steam Electric Generating Facility Unit 1, Unit 2, Unit 3, and Unit 4", "address": "4250 Porter Road, Quinton, AL, 35130", "latitude": 33.6343319, "longitude": -87.0535402 }, "geometry": { "type": "Point", "coordinates": [ -87.0535402, 33.6343319 ] } },
{ "type": "Feature", "properties": { "name": "GSP Merrimack LLC", "affected": "Merrimack Station in Bow, New Hampshire", "address": "431 RIVER RD, BOW, NH, 03304", "latitude": 43.1392392, "longitude": -71.4697697 }, "geometry": { "type": "Point", "coordinates": [ -71.4697697, 43.1392392 ] } },
{ "type": "Feature", "properties": { "name": "Dominion Energy", "affected": "Mount Storm Power Station", "address": "436 Dominion Blvd, MOUNT STORM, WV, 26739", "latitude": 39.202202, "longitude": -79.2628019 }, "geometry": { "type": "Point", "coordinates": [ -79.2628019, 39.202202 ] } },
{ "type": "Feature", "properties": { "name": "Otter Tail Power Company", "affected": "Big Stone Plant", "address": "48450 144th St, Big Stone City, SD 57216, US, ", "latitude": 45.3031689, "longitude": -96.509354 }, "geometry": { "type": "Point", "coordinates": [ -96.509354, 45.3031689 ] } },
{ "type": "Feature", "properties": { "name": "Rausch Creek Generation LLC", "affected": "Rausch Creek Generation Fluidized Bed Boiler (031)", "address": "490 West Main Street, TREMONT, PA, 17981", "latitude": 40.62631, "longitude": -76.3980073 }, "geometry": { "type": "Point", "coordinates": [ -76.3980073, 40.62631 ] } },
{ "type": "Feature", "properties": { "name": "City Utilities of Springfield", "affected": "John Twitty Energy Center", "address": "5100 W FARM ROAD 164, SPRINGFIELD, MO, 65807", "latitude": 37.1520598, "longitude": -93.3881532 }, "geometry": { "type": "Point", "coordinates": [ -93.3881532, 37.1520598 ] } },
{ "type": "Feature", "properties": { "name": "Hallador Power Company", "affected": "Merom Generating Station", "address": "5500 W OLD 54, SULLIVAN, IN, 47882", "latitude": 39.0548372, "longitude": -87.4802245 }, "geometry": { "type": "Point", "coordinates": [ -87.4802245, 39.0548372 ] } },
{ "type": "Feature", "properties": { "name": "Oklahoma Gas and Electric", "affected": "Muskogee Unit 6", "address": "5501 THREE FORKS ROAD, FORT GIBSON, OK, 74434", "latitude": 35.7680164, "longitude": -95.28947 }, "geometry": { "type": "Point", "coordinates": [ -95.28947, 35.7680164 ] } },
{ "type": "Feature", "properties": { "name": "Big Rivers Electric Corporation", "affected": "D.B. Wilson Station", "address": "5663 KY-85, Centertown, KY 42328, ", "latitude": 37.4489952, "longitude": -87.0787275 }, "geometry": { "type": "Point", "coordinates": [ -87.0787275, 37.4489952 ] } },
{ "type": "Feature", "properties": { "name": "Associated Electric Cooperative", "affected": "Thomas Hill Energy Center Unit 1 and Unit 2 Coal Fired Cyclone Boilers and Unit 3 Pulverized Coal Fired Tangential Boiler", "address": "5693 HIGHWAY F, CLIFTON HILL, MO, 65244", "latitude": 39.552525, "longitude": -92.6341039 }, "geometry": { "type": "Point", "coordinates": [ -92.6341039, 39.552525 ] } },
{ "type": "Feature", "properties": { "name": "Seward Generation", "affected": "Seward Generation Station", "address": "595 PLANT ROAD, NEW FLORENCE, PA, 15944", "latitude": 40.3989683, "longitude": -79.0362047 }, "geometry": { "type": "Point", "coordinates": [ -79.0362047, 40.3989683 ] } },
{ "type": "Feature", "properties": { "name": "San Miguel Electric Cooperative", "affected": "San Miguel Cooperative, Inc. in Christine, TX", "address": "6200 FM 3387, CHRISTINE, TX, 78012", "latitude": 28.7891467, "longitude": -98.4972391 }, "geometry": { "type": "Point", "coordinates": [ -98.4972391, 28.7891467 ] } },
{ "type": "Feature", "properties": { "name": "Otter Tail Power Company", "affected": "Coyote Station", "address": "6240 13TH ST SW, BEULAH, ND, 58523", "latitude": 47.2239705, "longitude": -101.8160877 }, "geometry": { "type": "Point", "coordinates": [ -101.8160877, 47.2239705 ] } },
{ "type": "Feature", "properties": { "name": "Illinois Power Generating Company", "affected": "Newton Power Station Unit 1", "address": "6725 N 500TH, NEWTON, IL, 62448", "latitude": 38.9383152, "longitude": -88.2757381 }, "geometry": { "type": "Point", "coordinates": [ -88.2757381, 38.9383152 ] } },
{ "type": "Feature", "properties": { "name": "Tennessee Valley Authority", "affected": "Shawnee Fossil Plant", "address": "7900 METROPOLIS LAKE RD, WEST PADUCAH, KY, 42086", "latitude": 37.1410467, "longitude": -88.7651966 }, "geometry": { "type": "Point", "coordinates": [ -88.7651966, 37.1410467 ] } },
{ "type": "Feature", "properties": { "name": "Ri-Corp Development Inc, Gilberton Power Company", "affected": "John B. Rich Memorial Power Station CFB Boiler 1 (CU031) and CFB Boiler 2 (CU032)", "address": "81 ELEANOR AVE, FRACKVILLE, PA, 17931", "latitude": 40.790953, "longitude": -76.198745 }, "geometry": { "type": "Point", "coordinates": [ -76.198745, 40.790953 ] } },
{ "type": "Feature", "properties": { "name": "Oak Grove Management Company", "affected": "Oak Grove Steam Electric Station", "address": "8127 Oak Grove Road, FRANKLIN, TX, 77856", "latitude": 31.1806789, "longitude": -96.486544 }, "geometry": { "type": "Point", "coordinates": [ -96.486544, 31.1806789 ] } },
{ "type": "Feature", "properties": { "name": "Tennessee Valley Authority", "affected": "Cumberland Fossil Plant", "address": "815 CUMBERLAND CITY RD, CUMBERLAND CITY, TN, 37050", "latitude": 36.3911774, "longitude": -87.6541936 }, "geometry": { "type": "Point", "coordinates": [ -87.6541936, 36.3911774 ] } },
{ "type": "Feature", "properties": { "name": "Ameren Missouri", "affected": "Sioux Energy Center", "address": "8501 N STATE ROUTE 94, WEST ALTON, MO, 63386", "latitude": 38.9154082, "longitude": -90.2906887 }, "geometry": { "type": "Point", "coordinates": [ -90.2906887, 38.9154082 ] } },
{ "type": "Feature", "properties": { "name": "Luminant Generation Company", "affected": "Martin Lake Steam Electric Station Unit 1, Unit 2, and Unit 3", "address": "8850 FM 2658 North, Tatum, TX, 75691", "latitude": 32.2648564, "longitude": -94.5858124 }, "geometry": { "type": "Point", "coordinates": [ -94.5858124, 32.2648564 ] } },
{ "type": "Feature", "properties": { "name": "Western Farmers Electric Cooperative", "affected": "Hugo Generating Station HU-UNIT 1", "address": "970 N 4335 Rd., FORT TOWSON, OK, 74735", "latitude": 33.9750096, "longitude": -95.3217326 }, "geometry": { "type": "Point", "coordinates": [ -95.3217326, 33.9750096 ] } },
{ "type": "Feature", "properties": { "name": "Kincaid Generation", "affected": "Kincaid Power Plant Unit 1 and Unit 2", "address": "County Rd 1650 N, Pawnee, IL 62558, ", "latitude": 39.5902373, "longitude": -89.4958002 }, "geometry": { "type": "Point", "coordinates": [ -89.4958002, 39.5902373 ] } },
{ "type": "Feature", "properties": { "name": "Coleto Creek Power", "affected": "Coleto Creek Power Station", "address": "FM 2987 OFF HWY 59, FANNIN, TX, 77960", "latitude": 28.6973347, "longitude": -97.23681 }, "geometry": { "type": "Point", "coordinates": [ -97.23681, 28.6973347 ] } },
{ "type": "Feature", "properties": { "name": "Basin Electric", "affected": "Antelope Valley Station Units 1 and 2", "address": "HWY 200, BEULAH, ND, 58523", "latitude": 47.4871779, "longitude": -100.4290405 }, "geometry": { "type": "Point", "coordinates": [ -100.4290405, 47.4871779 ] } },
{ "type": "Feature", "properties": { "name": "Basin Electric", "affected": "Leland Olds Station Units 1 and 2", "address": "HWY 200, STANTON, ND, 58571", "latitude": 47.4871779, "longitude": -100.4290405 }, "geometry": { "type": "Point", "coordinates": [ -100.4290405, 47.4871779 ] } },
{ "type": "Feature", "properties": { "name": "Basin Electric", "affected": "Laramie River Station Units 1, 2, and 3", "address": "HWY 320, WHEATLAND, WY, 82070", "latitude": 42.0654768, "longitude": -104.9533221 }, "geometry": { "type": "Point", "coordinates": [ -104.9533221, 42.0654768 ] } },
{ "type": "Feature", "properties": { "name": "Monongahela Power Company “MonPower”", "affected": "Harrison Power Station", "address": "ROUTE 20, HAYWOOD, WV, 26366", "latitude": 39.504481, "longitude": -80.587052 }, "geometry": { "type": "Point", "coordinates": [ -80.587052, 39.504481 ] } },
{ "type": "Feature", "properties": { "name": "Tennessee Valley Authority", "affected": "Kingston Fossil Plant", "address": "SWAN POND RD, KINGSTON, TN, 37763", "latitude": 35.901263, "longitude": -84.5271185 }, "geometry": { "type": "Point", "coordinates": [ -84.5271185, 35.901263 ] } },
{ "type": "Feature", "properties": { "name": "NRG Energy", "affected": "W.A Parish Generating Station", "address": "YU JONES RD, THOMPSONS, TX, 77469", "latitude": 29.4855415, "longitude": -95.6176775 }, "geometry": { "type": "Point", "coordinates": [ -95.6176775, 29.4855415 ] } }
]
}
