{
  "type": "FeatureCollection",
  "name": "plants_for_map",
  "crs": {
    "type": "name",
    "properties": { "name": "urn:ogc:def:crs:OGC:1.3:CRS84" }
  },
  "features": [
    {
      "type": "Feature",
      "properties": {
        "field_1": 1,
        "facility_source_affected": "Antelope Valley Station Units 1 and 2",
        "plant_name": "Antelope Valley",
        "utility_name": "Basin Electric Power Coop",
        "street_address": "Hwy 200",
        "city": "Beulah",
        "state": "North Dakota",
        "zip": 58523,
        "prim_source": "Coal",
        "latitude": 47.370542,
        "longitude": -101.83566
      },
      "geometry": { "type": "Point", "coordinates": [-101.83566, 47.370542] }
    },
    {
      "type": "Feature",
      "properties": {
        "field_1": 2,
        "facility_source_affected": "Apache Generating Station",
        "plant_name": "Apache Station",
        "utility_name": "Arizona Electric Pwr Coop Inc",
        "street_address": "3525 N US Hwy 191",
        "city": "Cochise",
        "state": "Arizona",
        "zip": 85606,
        "prim_source": "Natural gas",
        "latitude": 32.0603,
        "longitude": -109.8931
      },
      "geometry": { "type": "Point", "coordinates": [-109.8931, 32.0603] }
    },
    {
      "type": "Feature",
      "properties": {
        "field_1": 3,
        "facility_source_affected": "Baldwin Power Plant Unit 1 and Unit 2",
        "plant_name": "Baldwin Energy Complex",
        "utility_name": "Dynegy Midwest Generation Inc",
        "street_address": "10901 Baldwin Rd Box146",
        "city": "Baldwin",
        "state": "Illinois",
        "zip": 62217,
        "prim_source": "Coal",
        "latitude": 38.205,
        "longitude": -89.8544
      },
      "geometry": { "type": "Point", "coordinates": [-89.8544, 38.205] }
    },
    {
      "type": "Feature",
      "properties": {
        "field_1": 4,
        "facility_source_affected": "Barry Steam Electric Generating Facility Unit 5",
        "plant_name": "Barry",
        "utility_name": "Alabama Power Co",
        "street_address": "North Highway 43",
        "city": "Bucks",
        "state": "Alabama",
        "zip": 36512,
        "prim_source": "Natural gas",
        "latitude": 31.0069,
        "longitude": -88.0103
      },
      "geometry": { "type": "Point", "coordinates": [-88.0103, 31.0069] }
    },
    {
      "type": "Feature",
      "properties": {
        "field_1": 5,
        "facility_source_affected": "Big Stone Plant",
        "plant_name": "Big Stone",
        "utility_name": "Otter Tail Power Co",
        "street_address": "48450  144th Street",
        "city": "Big Stone City",
        "state": "South Dakota",
        "zip": 57216,
        "prim_source": "Coal",
        "latitude": 45.303652,
        "longitude": -96.510067
      },
      "geometry": { "type": "Point", "coordinates": [-96.510067, 45.303652] }
    },
    {
      "type": "Feature",
      "properties": {
        "field_1": 6,
        "facility_source_affected": "Bowen Steam Generator Unit 1, Unit 2, Unit 3, and Unit 4",
        "plant_name": "Bowen",
        "utility_name": "Georgia Power Co",
        "street_address": "317 Covered Bridge Road, SW",
        "city": "Cartersville",
        "state": "Georgia",
        "zip": 30120,
        "prim_source": "Coal",
        "latitude": 34.1256,
        "longitude": -84.9222
      },
      "geometry": { "type": "Point", "coordinates": [-84.9222, 34.1256] }
    },
    {
      "type": "Feature",
      "properties": {
        "field_1": 7,
        "facility_source_affected": "Brame Energy Center Unit 2",
        "plant_name": "Brame Energy Center",
        "utility_name": "Cleco Power LLC",
        "street_address": "275 Rodemacher Rd",
        "city": "Lena",
        "state": "Louisiana",
        "zip": 71447,
        "prim_source": "Petroleum",
        "latitude": 31.395,
        "longitude": -92.716667
      },
      "geometry": { "type": "Point", "coordinates": [-92.716667, 31.395] }
    },
    {
      "type": "Feature",
      "properties": {
        "field_1": 8,
        "facility_source_affected": "Coal Creek Station",
        "plant_name": "Coal Creek",
        "utility_name": "Rainbow Energy Center",
        "street_address": "2875 3rd Street SW",
        "city": "Underwood",
        "state": "North Dakota",
        "zip": 58576,
        "prim_source": "Coal",
        "latitude": 47.377743,
        "longitude": -101.157058
      },
      "geometry": { "type": "Point", "coordinates": [-101.157058, 47.377743] }
    },
    {
      "type": "Feature",
      "properties": {
        "field_1": 9,
        "facility_source_affected": "Coleto Creek Power Station",
        "plant_name": "Coleto Creek",
        "utility_name": "Coleto Creek Power LP",
        "street_address": "FM 2987 off Hwy 59",
        "city": "Fannin",
        "state": "Texas",
        "zip": 77960,
        "prim_source": "Coal",
        "latitude": 28.7128,
        "longitude": -97.214167
      },
      "geometry": { "type": "Point", "coordinates": [-97.214167, 28.7128] }
    },
    {
      "type": "Feature",
      "properties": {
        "field_1": 10,
        "facility_source_affected": "Colstrip Steam Electric Station Units 3 and 4",
        "plant_name": "Colstrip",
        "utility_name": "Talen Montana LLC",
        "street_address": "1 Warehouse Road",
        "city": "Colstrip",
        "state": "Montana",
        "zip": 59323,
        "prim_source": "Coal",
        "latitude": 45.8831,
        "longitude": -106.614
      },
      "geometry": { "type": "Point", "coordinates": [-106.614, 45.8831] }
    },
    {
      "type": "Feature",
      "properties": {
        "field_1": 11,
        "facility_source_affected": "Colver Green Facility",
        "plant_name": "Colver Green Energy",
        "utility_name": "Inter-Power/AhlCon Partners, L.P.",
        "street_address": "141 Interpower Drive",
        "city": "Colver",
        "state": "Pennsylvania",
        "zip": 15927,
        "prim_source": "Coal",
        "latitude": 40.55108,
        "longitude": -78.79794
      },
      "geometry": { "type": "Point", "coordinates": [-78.79794, 40.55108] }
    },
    {
      "type": "Feature",
      "properties": {
        "field_1": 12,
        "facility_source_affected": "Conemaugh Station Unit 1 and Unit 2",
        "plant_name": "Conemaugh",
        "utility_name": "KeyCon Operating LLC",
        "street_address": "1442 Power Plant Road",
        "city": "New Florence",
        "state": "Pennsylvania",
        "zip": 15944,
        "prim_source": "Coal",
        "latitude": 40.3842,
        "longitude": -79.0611
      },
      "geometry": { "type": "Point", "coordinates": [-79.0611, 40.3842] }
    },
    {
      "type": "Feature",
      "properties": {
        "field_1": 13,
        "facility_source_affected": "Cooper Station",
        "plant_name": "Cooper",
        "utility_name": "East Kentucky Power Coop, Inc",
        "street_address": "670 Cooper Power Plant Rd.",
        "city": "Somerset",
        "state": "Kentucky",
        "zip": 42501,
        "prim_source": "Coal",
        "latitude": 36.9981,
        "longitude": -84.5919
      },
      "geometry": { "type": "Point", "coordinates": [-84.5919, 36.9981] }
    },
    {
      "type": "Feature",
      "properties": {
        "field_1": 14,
        "facility_source_affected": "Coyote Station",
        "plant_name": "Coyote",
        "utility_name": "Otter Tail Power Co",
        "street_address": "6240  13th Street SW",
        "city": "Beulah",
        "state": "North Dakota",
        "zip": 58523,
        "prim_source": "Coal",
        "latitude": 47.221447,
        "longitude": -101.815722
      },
      "geometry": { "type": "Point", "coordinates": [-101.815722, 47.221447] }
    },
    {
      "type": "Feature",
      "properties": {
        "field_1": 15,
        "facility_source_affected": "Cumberland Fossil Plant",
        "plant_name": "Cumberland (TN)",
        "utility_name": "Tennessee Valley Authority",
        "street_address": "815 Cumberland City Rd.",
        "city": "Cumberland City",
        "state": "Tennessee",
        "zip": 37050,
        "prim_source": "Coal",
        "latitude": 36.3903,
        "longitude": -87.6539
      },
      "geometry": { "type": "Point", "coordinates": [-87.6539, 36.3903] }
    },
    {
      "type": "Feature",
      "properties": {
        "field_1": 16,
        "facility_source_affected": "D.B. Wilson Station",
        "plant_name": "D B Wilson",
        "utility_name": "Big Rivers Electric Corp",
        "street_address": "5663 Highway 85 West",
        "city": "Centertown",
        "state": "Kentucky",
        "zip": 42328,
        "prim_source": "Coal",
        "latitude": 37.4497,
        "longitude": -87.0806
      },
      "geometry": { "type": "Point", "coordinates": [-87.0806, 37.4497] }
    },
    {
      "type": "Feature",
      "properties": {
        "field_1": 17,
        "facility_source_affected": "Dry Fork Station Unit 1",
        "plant_name": "Dry Fork Station",
        "utility_name": "Basin Electric Power Coop",
        "street_address": "Interstate 90",
        "city": "Gillette",
        "state": "Wyoming",
        "zip": 82732,
        "prim_source": "Coal",
        "latitude": 44.388889,
        "longitude": -105.460833
      },
      "geometry": { "type": "Point", "coordinates": [-105.460833, 44.388889] }
    },
    {
      "type": "Feature",
      "properties": {
        "field_1": 18,
        "facility_source_affected": "EPC Generating Station",
        "plant_name": "Ebensburg Power",
        "utility_name": "Ebensburg Power Co",
        "street_address": "2840 New Germany Road",
        "city": "Ebensburg",
        "state": "Pennsylvania",
        "zip": 15931,
        "prim_source": "Coal",
        "latitude": 40.455,
        "longitude": -78.7472
      },
      "geometry": { "type": "Point", "coordinates": [-78.7472, 40.455] }
    },
    {
      "type": "Feature",
      "properties": {
        "field_1": 19,
        "facility_source_affected": "Fort Martin Power Station",
        "plant_name": "FirstEnergy Fort Martin Power Station",
        "utility_name": "Monongahela Power Co",
        "street_address": "PO Box 247",
        "city": "Maidsville",
        "state": "West Virginia",
        "zip": 26541,
        "prim_source": "Coal",
        "latitude": 39.710833,
        "longitude": -79.9275
      },
      "geometry": { "type": "Point", "coordinates": [-79.9275, 39.710833] }
    },
    {
      "type": "Feature",
      "properties": {
        "field_1": 20,
        "facility_source_affected": "Gallatin Fossil Plant",
        "plant_name": "Gallatin (TN)",
        "utility_name": "Tennessee Valley Authority",
        "street_address": "1499 Steam Plant Rd.",
        "city": "Gallatin",
        "state": "Tennessee",
        "zip": 37066,
        "prim_source": "Coal",
        "latitude": 36.3156,
        "longitude": -86.4006
      },
      "geometry": { "type": "Point", "coordinates": [-86.4006, 36.3156] }
    },
    {
      "type": "Feature",
      "properties": {
        "field_1": 21,
        "facility_source_affected": "Grant Town Power Plant Boiler #1A and Boiler #1B",
        "plant_name": "Grant Town Power Plant",
        "utility_name": "American Bituminous Power LP",
        "street_address": "228 ABPP Drive",
        "city": "Grant Town",
        "state": "West Virginia",
        "zip": 26574,
        "prim_source": "Coal",
        "latitude": 39.561831,
        "longitude": -80.163138
      },
      "geometry": { "type": "Point", "coordinates": [-80.163138, 39.561831] }
    },
    {
      "type": "Feature",
      "properties": {
        "field_1": 22,
        "facility_source_affected": "Harrison Power Station",
        "plant_name": "FirstEnergy Harrison Power Station",
        "utility_name": "Monongahela Power Co",
        "street_address": "PO Box 600",
        "city": "Haywood",
        "state": "West Virginia",
        "zip": 26366,
        "prim_source": "Coal",
        "latitude": 39.384167,
        "longitude": -80.3325
      },
      "geometry": { "type": "Point", "coordinates": [-80.3325, 39.384167] }
    },
    {
      "type": "Feature",
      "properties": {
        "field_1": 23,
        "facility_source_affected": "Healy Power Plant Unit 1 and Unit 2",
        "plant_name": "Healy",
        "utility_name": "Golden Valley Elec Assn Inc",
        "street_address": "2.5 Mile Healy Spur Road",
        "city": "Healy",
        "state": "Alaska",
        "zip": 99743,
        "prim_source": "Coal",
        "latitude": 63.8542,
        "longitude": -148.95
      },
      "geometry": { "type": "Point", "coordinates": [-148.95, 63.8542] }
    },
    {
      "type": "Feature",
      "properties": {
        "field_1": 24,
        "facility_source_affected": "Holcomb Station",
        "plant_name": "Holcomb",
        "utility_name": "Sunflower Electric Power Corp",
        "street_address": "2440 Holcomb Lane",
        "city": "Holcomb",
        "state": "Kansas",
        "zip": 67851,
        "prim_source": "Coal",
        "latitude": 37.9308,
        "longitude": -100.9725
      },
      "geometry": { "type": "Point", "coordinates": [-100.9725, 37.9308] }
    },
    {
      "type": "Feature",
      "properties": {
        "field_1": 25,
        "facility_source_affected": "Hugo Generating Station HU-UNIT 1",
        "plant_name": "Hugo",
        "utility_name": "Western Farmers Elec Coop, Inc",
        "street_address": "3 Miles West on Hyw. 70",
        "city": "Fort Towson",
        "state": "Oklahoma",
        "zip": 74735,
        "prim_source": "Coal",
        "latitude": 34.0158,
        "longitude": -95.3206
      },
      "geometry": { "type": "Point", "coordinates": [-95.3206, 34.0158] }
    },
    {
      "type": "Feature",
      "properties": {
        "field_1": 26,
        "facility_source_affected": "John B. Rich Memorial Power Station CFB Boiler 1 (CU031) and CFB Boiler 2 (CU032)",
        "plant_name": "John B Rich Memorial Power Station",
        "utility_name": "Gilberton Power Co",
        "street_address": "81 Eleanor Avenue",
        "city": "Frackville",
        "state": "Pennsylvania",
        "zip": 17931,
        "prim_source": "Coal",
        "latitude": 40.7903,
        "longitude": -76.1983
      },
      "geometry": { "type": "Point", "coordinates": [-76.1983, 40.7903] }
    },
    {
      "type": "Feature",
      "properties": {
        "field_1": 27,
        "facility_source_affected": "John Twitty Energy Center",
        "plant_name": "John Twitty Energy Center",
        "utility_name": "City Utilities of Springfield - (MO)",
        "street_address": "5100 W Farm Road 164",
        "city": "Springfield",
        "state": "Missouri",
        "zip": 65807,
        "prim_source": "Coal",
        "latitude": 37.151706,
        "longitude": -93.38804
      },
      "geometry": { "type": "Point", "coordinates": [-93.38804, 37.151706] }
    },
    {
      "type": "Feature",
      "properties": {
        "field_1": 28,
        "facility_source_affected": "Keystone Station Unit 1 and Unit 2",
        "plant_name": "Keystone",
        "utility_name": "KeyCon Operating LLC",
        "street_address": "313 Keystone Drive",
        "city": "Shelocta",
        "state": "Pennsylvania",
        "zip": 15774,
        "prim_source": "Coal",
        "latitude": 40.6604,
        "longitude": -79.3411
      },
      "geometry": { "type": "Point", "coordinates": [-79.3411, 40.6604] }
    },
    {
      "type": "Feature",
      "properties": {
        "field_1": 29,
        "facility_source_affected": "Kincaid Power Plant Unit 1 and Unit 2",
        "plant_name": "Kincaid Generation LLC",
        "utility_name": "Dynegy Kincaid Generation",
        "street_address": "4 Miles West of Kincaid Rt 104",
        "city": "Kincaid",
        "state": "Illinois",
        "zip": 62540,
        "prim_source": "Coal",
        "latitude": 39.590556,
        "longitude": -89.496389
      },
      "geometry": { "type": "Point", "coordinates": [-89.496389, 39.590556] }
    },
    {
      "type": "Feature",
      "properties": {
        "field_1": 30,
        "facility_source_affected": "Kingston Fossil Plant",
        "plant_name": "Kingston",
        "utility_name": "Tennessee Valley Authority",
        "street_address": "Swan Pond Rd. PO Box 2000",
        "city": "Kingston",
        "state": "Tennessee",
        "zip": 37763,
        "prim_source": "Coal",
        "latitude": 35.8992,
        "longitude": -84.5194
      },
      "geometry": { "type": "Point", "coordinates": [-84.5194, 35.8992] }
    },
    {
      "type": "Feature",
      "properties": {
        "field_1": 31,
        "facility_source_affected": "Labadie Energy Center",
        "plant_name": "Labadie",
        "utility_name": "Union Electric Co - (MO)",
        "street_address": "226 Labadie Power Plant Road",
        "city": "Labadie",
        "state": "Missouri",
        "zip": 63055,
        "prim_source": "Coal",
        "latitude": 38.562244,
        "longitude": -90.837686
      },
      "geometry": { "type": "Point", "coordinates": [-90.837686, 38.562244] }
    },
    {
      "type": "Feature",
      "properties": {
        "field_1": 32,
        "facility_source_affected": "Laramie River Station Units 1, 2, and 3",
        "plant_name": "Laramie River Station",
        "utility_name": "Basin Electric Power Coop",
        "street_address": "Hwy 320",
        "city": "Wheatland",
        "state": "Wyoming",
        "zip": 82201,
        "prim_source": "Coal",
        "latitude": 42.108889,
        "longitude": -104.8825
      },
      "geometry": { "type": "Point", "coordinates": [-104.8825, 42.108889] }
    },
    {
      "type": "Feature",
      "properties": {
        "field_1": 33,
        "facility_source_affected": "Leland Olds Station Units 1 and 2",
        "plant_name": "Leland Olds",
        "utility_name": "Basin Electric Power Coop",
        "street_address": "Hwy 200",
        "city": "Stanton",
        "state": "North Dakota",
        "zip": 58571,
        "prim_source": "Coal",
        "latitude": 47.280769,
        "longitude": -101.321213
      },
      "geometry": { "type": "Point", "coordinates": [-101.321213, 47.280769] }
    },
    {
      "type": "Feature",
      "properties": {
        "field_1": 34,
        "facility_source_affected": "Limestone Generating Station",
        "plant_name": "Limestone",
        "utility_name": "NRG Texas Power LLC",
        "street_address": "Route1, Box 85",
        "city": "Jewett",
        "state": "Texas",
        "zip": 75846,
        "prim_source": "Coal",
        "latitude": 31.4219,
        "longitude": -96.2525
      },
      "geometry": { "type": "Point", "coordinates": [-96.2525, 31.4219] }
    },
    {
      "type": "Feature",
      "properties": {
        "field_1": 35,
        "facility_source_affected": "Martin Lake Steam Electric Station Unit 1, Unit 2, and Unit 3",
        "plant_name": "Martin Lake",
        "utility_name": "Luminant Generation Company LLC",
        "street_address": "PO Box 651",
        "city": "Tatum",
        "state": "Texas",
        "zip": 75691,
        "prim_source": "Coal",
        "latitude": 32.2606,
        "longitude": -94.5706
      },
      "geometry": { "type": "Point", "coordinates": [-94.5706, 32.2606] }
    },
    {
      "type": "Feature",
      "properties": {
        "field_1": 36,
        "facility_source_affected": "Merom Generating Station",
        "plant_name": "Merom",
        "utility_name": "Hallador Power Company, LLC",
        "street_address": "5500 W. Old 54",
        "city": "Sullivan",
        "state": "Indiana",
        "zip": 47882,
        "prim_source": "Coal",
        "latitude": 39.0694,
        "longitude": -87.5108
      },
      "geometry": { "type": "Point", "coordinates": [-87.5108, 39.0694] }
    },
    {
      "type": "Feature",
      "properties": {
        "field_1": 37,
        "facility_source_affected": "Merrimack Station in Bow, New Hampshire",
        "plant_name": "Merrimack",
        "utility_name": "Granite Shore Power",
        "street_address": "97 River Rd.",
        "city": "Bow",
        "state": "New Hampshire",
        "zip": 3301,
        "prim_source": "Coal",
        "latitude": 43.1411,
        "longitude": -71.4692
      },
      "geometry": { "type": "Point", "coordinates": [-71.4692, 43.1411] }
    },
    {
      "type": "Feature",
      "properties": {
        "field_1": 38,
        "facility_source_affected": "Miami Fort Power Plant Unit 1 (B015) and Unit 2 (B016)",
        "plant_name": "Miami Fort",
        "utility_name": "Luminant Miami Fort",
        "street_address": "11021 Brower Rd.",
        "city": "North Bend",
        "state": "Ohio",
        "zip": 45052,
        "prim_source": "Coal",
        "latitude": 39.1128,
        "longitude": -84.8036
      },
      "geometry": { "type": "Point", "coordinates": [-84.8036, 39.1128] }
    },
    {
      "type": "Feature",
      "properties": {
        "field_1": 39,
        "facility_source_affected": "Miller Steam Electric Generating Facility Unit 1, Unit 2, Unit 3, and Unit 4",
        "plant_name": "James H Miller Jr",
        "utility_name": "Alabama Power Co",
        "street_address": "42050 Porter Road",
        "city": "Quinton",
        "state": "Alabama",
        "zip": 35073,
        "prim_source": "Coal",
        "latitude": 33.6319,
        "longitude": -87.0597
      },
      "geometry": { "type": "Point", "coordinates": [-87.0597, 33.6319] }
    },
    {
      "type": "Feature",
      "properties": {
        "field_1": 40,
        "facility_source_affected": "Milton R. Young Station Unit 1 and Unit 2",
        "plant_name": "Milton R Young",
        "utility_name": "Minnkota Power Coop, Inc",
        "street_address": "3401 24th Street S.W.",
        "city": "Center",
        "state": "North Dakota",
        "zip": 58530,
        "prim_source": "Coal",
        "latitude": 47.065854,
        "longitude": -101.213093
      },
      "geometry": { "type": "Point", "coordinates": [-101.213093, 47.065854] }
    },
    {
      "type": "Feature",
      "properties": {
        "field_1": 41,
        "facility_source_affected": "Mount Carmel Cogen Power Plant",
        "plant_name": "Foster Wheeler Mt Carmel Cogen",
        "utility_name": "Mount Carmel Cogen Inc",
        "street_address": "Marion Heights Road & Rt 54",
        "city": "Marion Heights",
        "state": "Pennsylvania",
        "zip": 17832,
        "prim_source": "Coal",
        "latitude": 40.811189,
        "longitude": -76.452951
      },
      "geometry": { "type": "Point", "coordinates": [-76.452951, 40.811189] }
    },
    {
      "type": "Feature",
      "properties": {
        "field_1": 42,
        "facility_source_affected": "Mount Storm Power Station",
        "plant_name": "Mt Storm",
        "utility_name": "Virginia Electric & Power Co",
        "street_address": "HC 76, Box 430",
        "city": "Mount Storm",
        "state": "West Virginia",
        "zip": 26739,
        "prim_source": "Coal",
        "latitude": 39.2008,
        "longitude": -79.2636
      },
      "geometry": { "type": "Point", "coordinates": [-79.2636, 39.2008] }
    },
    {
      "type": "Feature",
      "properties": {
        "field_1": 43,
        "facility_source_affected": "Muskogee Unit 6",
        "plant_name": "Muskogee",
        "utility_name": "Oklahoma Gas & Electric Co",
        "street_address": "5501 Three Forks Road",
        "city": "Fort Gibson",
        "state": "Oklahoma",
        "zip": 74434,
        "prim_source": "Natural gas",
        "latitude": 35.76135,
        "longitude": -95.28732
      },
      "geometry": { "type": "Point", "coordinates": [-95.28732, 35.76135] }
    },
    {
      "type": "Feature",
      "properties": {
        "field_1": 44,
        "facility_source_affected": "New Madrid Power Plant Unit 1 and Unit 2 Coal Fired Cyclone Boilers",
        "plant_name": "New Madrid",
        "utility_name": "Associated Electric Coop, Inc",
        "street_address": "41 St. Jude Industrial Park",
        "city": "New Madrid",
        "state": "Missouri",
        "zip": 63869,
        "prim_source": "Coal",
        "latitude": 36.5147,
        "longitude": -89.5617
      },
      "geometry": { "type": "Point", "coordinates": [-89.5617, 36.5147] }
    },
    {
      "type": "Feature",
      "properties": {
        "field_1": 45,
        "facility_source_affected": "Newton Power Station Unit 1",
        "plant_name": "Newton",
        "utility_name": "Illinois Power Generating Co",
        "street_address": "6725 N. 500th",
        "city": "Newton",
        "state": "Illinois",
        "zip": 62448,
        "prim_source": "Coal",
        "latitude": 38.9361,
        "longitude": -88.2781
      },
      "geometry": { "type": "Point", "coordinates": [-88.2781, 38.9361] }
    },
    {
      "type": "Feature",
      "properties": {
        "field_1": 46,
        "facility_source_affected": "Northampton Generating Station Generating Unit 1",
        "plant_name": "Northampton Generating Company LP",
        "utility_name": "EIF Northampton GP, LLC",
        "street_address": "1 Horwith Drive",
        "city": "Northampton",
        "state": "Pennsylvania",
        "zip": 18067,
        "prim_source": "Coal",
        "latitude": 40.6917,
        "longitude": -75.4792
      },
      "geometry": { "type": "Point", "coordinates": [-75.4792, 40.6917] }
    },
    {
      "type": "Feature",
      "properties": {
        "field_1": 47,
        "facility_source_affected": "Oak Grove Steam Electric Station",
        "plant_name": "Oak Grove (TX)",
        "utility_name": "Luminant Generation Company LLC",
        "street_address": "P.O. Box 558",
        "city": "Franklin",
        "state": "Texas",
        "zip": 77856,
        "prim_source": "Coal",
        "latitude": 31.1803,
        "longitude": -96.4866
      },
      "geometry": { "type": "Point", "coordinates": [-96.4866, 31.1803] }
    },
    {
      "type": "Feature",
      "properties": {
        "field_1": 48,
        "facility_source_affected": "Panther Creek Pyropower Unit (031) and Pyropower Unit 2 (032)",
        "plant_name": "Panther Creek Energy Facility",
        "utility_name": "Panther Creek Power Operating, LLC",
        "street_address": "4 Dennison Road",
        "city": "Nesquehoning",
        "state": "Pennsylvania",
        "zip": 18240,
        "prim_source": "Coal",
        "latitude": 40.8556,
        "longitude": -75.8781
      },
      "geometry": { "type": "Point", "coordinates": [-75.8781, 40.8556] }
    },
    {
      "type": "Feature",
      "properties": {
        "field_1": 49,
        "facility_source_affected": "Plant Daniel Electric Generating Unit 1 and Unit 2",
        "plant_name": "Victor J Daniel Jr",
        "utility_name": "Mississippi Power Co",
        "street_address": "13201 Highway 63",
        "city": "Escatawpa",
        "state": "Mississippi",
        "zip": 39552,
        "prim_source": "Natural gas",
        "latitude": 30.5322,
        "longitude": -88.5553
      },
      "geometry": { "type": "Point", "coordinates": [-88.5553, 30.5322] }
    },
    {
      "type": "Feature",
      "properties": {
        "field_1": 50,
        "facility_source_affected": "Plum Point Generation Station",
        "plant_name": "Plum Point Energy Station",
        "utility_name": "NRG Energy Services - Plum Point",
        "street_address": "2732A South County Road 623",
        "city": "Osceola",
        "state": "Arkansas",
        "zip": 72370,
        "prim_source": "Coal",
        "latitude": 35.6644,
        "longitude": -89.9489
      },
      "geometry": { "type": "Point", "coordinates": [-89.9489, 35.6644] }
    },
    {
      "type": "Feature",
      "properties": {
        "field_1": 51,
        "facility_source_affected": "Powerton Electric Generating Station",
        "plant_name": "Powerton",
        "utility_name": "Midwest Generations EME LLC",
        "street_address": "Rt 29 & Manito Rd",
        "city": "Pekin",
        "state": "Illinois",
        "zip": 61554,
        "prim_source": "Coal",
        "latitude": 40.5408,
        "longitude": -89.6786
      },
      "geometry": { "type": "Point", "coordinates": [-89.6786, 40.5408] }
    },
    {
      "type": "Feature",
      "properties": {
        "field_1": 52,
        "facility_source_affected": "Rausch Creek Generation Fluidized Bed Boiler (031)",
        "plant_name": "Westwood Generation LLC",
        "utility_name": "Rausch Creek Generation, LLC",
        "street_address": "PO Box 312",
        "city": "Tremont",
        "state": "Pennsylvania",
        "zip": 17981,
        "prim_source": "Coal",
        "latitude": 40.6191,
        "longitude": -76.45
      },
      "geometry": { "type": "Point", "coordinates": [-76.45, 40.6191] }
    },
    {
      "type": "Feature",
      "properties": {
        "field_1": 53,
        "facility_source_affected": "Red Hills Generating Facility",
        "plant_name": "Red Hills Generating Facility",
        "utility_name": "Choctaw Generation L.P, L.L.L.P.",
        "street_address": "2391 Pensacola Road",
        "city": "Ackerman",
        "state": "Mississippi",
        "zip": 39735,
        "prim_source": "Coal",
        "latitude": 33.3761,
        "longitude": -89.2183
      },
      "geometry": { "type": "Point", "coordinates": [-89.2183, 33.3761] }
    },
    {
      "type": "Feature",
      "properties": {
        "field_1": 54,
        "facility_source_affected": "River Valley Common Stack CS 1",
        "plant_name": "River Valley",
        "utility_name": "Oklahoma Gas & Electric Co",
        "street_address": "PO Box 1740",
        "city": "Panama",
        "state": "Oklahoma",
        "zip": 74951,
        "prim_source": "Coal",
        "latitude": 35.1931,
        "longitude": -94.6458
      },
      "geometry": { "type": "Point", "coordinates": [-94.6458, 35.1931] }
    },
    {
      "type": "Feature",
      "properties": {
        "field_1": 55,
        "facility_source_affected": "RS Nelson Plant Unit 6",
        "plant_name": "R S Nelson",
        "utility_name": "Entergy Louisiana LLC",
        "street_address": "3500 Houston River Road",
        "city": "Westlake",
        "state": "Louisiana",
        "zip": 70669,
        "prim_source": "Coal",
        "latitude": 30.2844,
        "longitude": -93.2911
      },
      "geometry": { "type": "Point", "coordinates": [-93.2911, 30.2844] }
    },
    {
      "type": "Feature",
      "properties": {
        "field_1": 56,
        "facility_source_affected": "San Miguel Cooperative, Inc. in Christine, TX",
        "plant_name": "San Miguel",
        "utility_name": "San Miguel Electric Coop, Inc",
        "street_address": "6200 FM 3387",
        "city": "Christine",
        "state": "Texas",
        "zip": 78012,
        "prim_source": "Coal",
        "latitude": 28.7044,
        "longitude": -98.4775
      },
      "geometry": { "type": "Point", "coordinates": [-98.4775, 28.7044] }
    },
    {
      "type": "Feature",
      "properties": {
        "field_1": 57,
        "facility_source_affected": "Scherer Steam Generator Unit 1, Unit 2, and Unit 3",
        "plant_name": "Scherer",
        "utility_name": "Georgia Power Co",
        "street_address": "10986 Highway 87",
        "city": "Juliette",
        "state": "Georgia",
        "zip": 31046,
        "prim_source": "Coal",
        "latitude": 33.0606,
        "longitude": -83.8075
      },
      "geometry": { "type": "Point", "coordinates": [-83.8075, 33.0606] }
    },
    {
      "type": "Feature",
      "properties": {
        "field_1": 58,
        "facility_source_affected": "Scrubgrass Generating Plant/Venango Number 2 CFB Boiler (031), Number 2 CEB Boiler (032)",
        "plant_name": "Scrubgrass Reclamation CO. LP.",
        "utility_name": "Scrubgrass Reclamation CO. LP.",
        "street_address": "2151 Lisbon Road",
        "city": "Kennerdell",
        "state": "Pennsylvania",
        "zip": 16374,
        "prim_source": "Coal",
        "latitude": 41.2691,
        "longitude": -79.8134
      },
      "geometry": { "type": "Point", "coordinates": [-79.8134, 41.2691] }
    },
    {
      "type": "Feature",
      "properties": {
        "field_1": 59,
        "facility_source_affected": "Seward Generation Station",
        "plant_name": "Seward (PA)",
        "utility_name": "Seward Generating LLC",
        "street_address": "595 Plant Road",
        "city": "New Florence",
        "state": "Pennsylvania",
        "zip": 15944,
        "prim_source": "Coal",
        "latitude": 40.40625,
        "longitude": -79.03366
      },
      "geometry": { "type": "Point", "coordinates": [-79.03366, 40.40625] }
    },
    {
      "type": "Feature",
      "properties": {
        "field_1": 60,
        "facility_source_affected": "Shawnee Fossil Plant",
        "plant_name": "Shawnee",
        "utility_name": "Tennessee Valley Authority",
        "street_address": "7900 Metropolis Lake Rd.",
        "city": "West Paducah",
        "state": "Kentucky",
        "zip": 42086,
        "prim_source": "Coal",
        "latitude": 37.1517,
        "longitude": -88.775
      },
      "geometry": { "type": "Point", "coordinates": [-88.775, 37.1517] }
    },
    {
      "type": "Feature",
      "properties": {
        "field_1": 61,
        "facility_source_affected": "Sioux Energy Center",
        "plant_name": "Sioux",
        "utility_name": "Union Electric Co - (MO)",
        "street_address": "8501 N. State Route 94",
        "city": "West Alton",
        "state": "Missouri",
        "zip": 63386,
        "prim_source": "Coal",
        "latitude": 38.915479,
        "longitude": -90.290247
      },
      "geometry": { "type": "Point", "coordinates": [-90.290247, 38.915479] }
    },
    {
      "type": "Feature",
      "properties": {
        "field_1": 62,
        "facility_source_affected": "Sooner Unit 1 and Unit 2",
        "plant_name": "Sooner",
        "utility_name": "Oklahoma Gas & Electric Co",
        "street_address": "10800 County Road 230",
        "city": "Red Rock",
        "state": "Oklahoma",
        "zip": 73061,
        "prim_source": "Coal",
        "latitude": 36.45307,
        "longitude": -97.05279
      },
      "geometry": { "type": "Point", "coordinates": [-97.05279, 36.45307] }
    },
    {
      "type": "Feature",
      "properties": {
        "field_1": 63,
        "facility_source_affected": "Spurlock Station",
        "plant_name": "H L Spurlock",
        "utility_name": "East Kentucky Power Coop, Inc",
        "street_address": "Route 8 P.O. Box 398",
        "city": "Maysville",
        "state": "Kentucky",
        "zip": 41056,
        "prim_source": "Coal",
        "latitude": 38.7,
        "longitude": -83.8181
      },
      "geometry": { "type": "Point", "coordinates": [-83.8181, 38.7] }
    },
    {
      "type": "Feature",
      "properties": {
        "field_1": 64,
        "facility_source_affected": "St. Nicholas Cogeneration Project",
        "plant_name": "St Nicholas Cogen Project",
        "utility_name": "Schuylkill Energy Resource Inc",
        "street_address": "Hwy 54 E, Twp Rt. 851",
        "city": "Shenandoah",
        "state": "Pennsylvania",
        "zip": 17976,
        "prim_source": "Coal",
        "latitude": 40.8222,
        "longitude": -76.1736
      },
      "geometry": { "type": "Point", "coordinates": [-76.1736, 40.8222] }
    },
    {
      "type": "Feature",
      "properties": {
        "field_1": 65,
        "facility_source_affected": "Thomas Hill Energy Center Unit 1 and Unit 2 Coal Fired Cyclone Boilers and Unit 3 Pulverized Coal Fired Tangential Boiler",
        "plant_name": "Thomas Hill",
        "utility_name": "Associated Electric Coop, Inc",
        "street_address": "5693 Highway F",
        "city": "Clifton Hill",
        "state": "Missouri",
        "zip": 65244,
        "prim_source": "Coal",
        "latitude": 39.5522,
        "longitude": -92.6381
      },
      "geometry": { "type": "Point", "coordinates": [-92.6381, 39.5522] }
    },
    {
      "type": "Feature",
      "properties": {
        "field_1": 66,
        "facility_source_affected": "W.A Parish Generating Station",
        "plant_name": "W A Parish",
        "utility_name": "NRG Texas Power LLC",
        "street_address": "2500 Y. U. Jones Road",
        "city": "Thompsons",
        "state": "Texas",
        "zip": 77481,
        "prim_source": "Coal",
        "latitude": 29.4828,
        "longitude": -95.6311
      },
      "geometry": { "type": "Point", "coordinates": [-95.6311, 29.4828] }
    },
    {
      "type": "Feature",
      "properties": {
        "field_1": 67,
        "facility_source_affected": "Walleye Power, LLC Bay Shore Unit 1",
        "plant_name": "FirstEnergy Bay Shore",
        "utility_name": "Walleye Power, LLC",
        "street_address": "4701 Bay Shore Road",
        "city": "Oregon",
        "state": "Ohio",
        "zip": 43616,
        "prim_source": "Petroleum",
        "latitude": 41.6917,
        "longitude": -83.4378
      },
      "geometry": { "type": "Point", "coordinates": [-83.4378, 41.6917] }
    },
    {
      "type": "Feature",
      "properties": {
        "field_1": 68,
        "facility_source_affected": "White Bluff Steam Electric Station Unit 1",
        "plant_name": "White Bluff",
        "utility_name": "Entergy Arkansas LLC",
        "street_address": "1100 White Bluff Road",
        "city": "Redfield",
        "state": "Arkansas",
        "zip": 72132,
        "prim_source": "Coal",
        "latitude": 34.4228,
        "longitude": -92.1406
      },
      "geometry": { "type": "Point", "coordinates": [-92.1406, 34.4228] }
    }
  ]
}
